INMARSAT 3-F3           
1 24674U 96070A   17346.42893118  .00000032  00000-0  00000+0 0  9996
2 24674   3.7804  70.9018 0005228 193.2082 149.7431  1.00274353 76797
